{
  "type": "FeatureCollection",
  "features": [
    {
      "type": "Feature",
      "properties": {
        "norad_id": 31307,
        "name": "GALAXY 17 (G-17)",
        "group": "intelsat",
        "lat": 2.124031901815368,
        "lon": -154.94098539563825,
        "alt_km": 35771.285833399816,
        "timestamp": "2025-12-27T12:55:14.154773+00:00",
        "meta_object_name": "GALAXY 17 (G-17)",
        "meta_object_id": "2007-016B",
        "meta_epoch": "2025-12-27T05:41:41.557920",
        "meta_mean_motion": 1.00271444,
        "meta_eccentricity": 0.00056477,
        "meta_inclination": 2.5345,
        "meta_ra_of_asc_node": 82.1193,
        "meta_arg_of_pericenter": 175.01,
        "meta_mean_anomaly": 199.2775,
        "meta_ephemeris_type": 0,
        "meta_classification_type": "U",
        "meta_norad_cat_id": 31307,
        "meta_element_set_no": 999,
        "meta_rev_at_epoch": 6808,
        "meta_bstar": 0,
        "meta_mean_motion_dot": -1.85e-06,
        "meta_mean_motion_ddot": 0,
        "tle_line1": "1 31307U 07016B   25361.23728655 -.00000185  00000+0  00000+0 0  9996",
        "tle_line2": "2 31307   2.5345  82.1193 0005647 175.0100 199.2775  1.00271444 68080"
      },
      "geometry": {
        "type": "Point",
        "coordinates": [
          -154.94098539563825,
          2.124031901815368
        ]
      }
    },
    {
      "type": "Feature",
      "properties": {
        "norad_id": 31862,
        "name": "DIRECTV 10",
        "group": "intelsat",
        "lat": 0.002854442270834651,
        "lon": -172.6536043782692,
        "alt_km": 35781.56604906025,
        "timestamp": "2025-12-27T12:55:14.154786+00:00",
        "meta_object_name": "DIRECTV 10",
        "meta_object_id": "2007-032A",
        "meta_epoch": "2025-12-25T09:09:15.831072",
        "meta_mean_motion": 1.00280696,
        "meta_eccentricity": 7.66e-05,
        "meta_inclination": 0.0126,
        "meta_ra_of_asc_node": 126.575,
        "meta_arg_of_pericenter": 111.4706,
        "meta_mean_anomaly": 250.6263,
        "meta_ephemeris_type": 0,
        "meta_classification_type": "U",
        "meta_norad_cat_id": 31862,
        "meta_element_set_no": 999,
        "meta_rev_at_epoch": 4385,
        "meta_bstar": 0,
        "meta_mean_motion_dot": -8.3e-07,
        "meta_mean_motion_ddot": 0,
        "tle_line1": "1 31862U 07032A   25359.38143323 -.00000083  00000+0  00000+0 0  9993",
        "tle_line2": "2 31862   0.0126 126.5750 0000766 111.4706 250.6263  1.00280696 43852"
      },
      "geometry": {
        "type": "Point",
        "coordinates": [
          -172.6536043782692,
          0.002854442270834651
        ]
      }
    },
    {
      "type": "Feature",
      "properties": {
        "norad_id": 32253,
        "name": "INTELSAT 11 (IS-11)",
        "group": "intelsat",
        "lat": 0.5537762369010575,
        "lon": 90.69573656052604,
        "alt_km": 36166.48903945649,
        "timestamp": "2025-12-27T12:55:14.154798+00:00",
        "meta_object_name": "INTELSAT 11 (IS-11)",
        "meta_object_id": "2007-044B",
        "meta_epoch": "2025-12-27T04:23:51.542016",
        "meta_mean_motion": 0.99052931,
        "meta_eccentricity": 0.0008675,
        "meta_inclination": 3.1158,
        "meta_ra_of_asc_node": 80.8129,
        "meta_arg_of_pericenter": 172.2743,
        "meta_mean_anomaly": 71.0232,
        "meta_ephemeris_type": 0,
        "meta_classification_type": "U",
        "meta_norad_cat_id": 32253,
        "meta_element_set_no": 999,
        "meta_rev_at_epoch": 6674,
        "meta_bstar": 0,
        "meta_mean_motion_dot": -2.29e-06,
        "meta_mean_motion_ddot": 0,
        "tle_line1": "1 32253U 07044B   25361.18323544 -.00000229  00000+0  00000+0 0  9999",
        "tle_line2": "2 32253   3.1158  80.8129 0008675 172.2743  71.0232  0.99052931 66741"
      },
      "geometry": {
        "type": "Point",
        "coordinates": [
          90.69573656052604,
          0.5537762369010575
        ]
      }
    },
    {
      "type": "Feature",
      "properties": {
        "norad_id": 32388,
        "name": "HORIZONS-2",
        "group": "intelsat",
        "lat": 1.5599959955041784,
        "lon": -143.7800855735927,
        "alt_km": 35777.841990725545,
        "timestamp": "2025-12-27T12:55:14.154811+00:00",
        "meta_object_name": "HORIZONS-2",
        "meta_object_id": "2007-063B",
        "meta_epoch": "2025-12-27T01:24:36.095040",
        "meta_mean_motion": 1.00268662,
        "meta_eccentricity": 0.00048859,
        "meta_inclination": 2.1568,
        "meta_ra_of_asc_node": 82.8029,
        "meta_arg_of_pericenter": 197.7808,
        "meta_mean_anomaly": 122.5454,
        "meta_ephemeris_type": 0,
        "meta_classification_type": "U",
        "meta_norad_cat_id": 32388,
        "meta_element_set_no": 999,
        "meta_rev_at_epoch": 6608,
        "meta_bstar": 0,
        "meta_mean_motion_dot": -2.32e-06,
        "meta_mean_motion_ddot": 0,
        "tle_line1": "1 32388U 07063B   25361.05875110 -.00000232  00000+0  00000+0 0  9990",
        "tle_line2": "2 32388   2.1568  82.8029 0004885 197.7808 122.5454  1.00268662 66086"
      },
      "geometry": {
        "type": "Point",
        "coordinates": [
          -143.7800855735927,
          1.5599959955041784
        ]
      }
    },
    {
      "type": "Feature",
      "properties": {
        "norad_id": 32729,
        "name": "DIRECTV 11",
        "group": "intelsat",
        "lat": -0.015767257569633972,
        "lon": -169.2405909694319,
        "alt_km": 35785.19665242244,
        "timestamp": "2025-12-27T12:55:14.154827+00:00",
        "meta_object_name": "DIRECTV 11",
        "meta_object_id": "2008-013A",
        "meta_epoch": "2025-12-24T22:53:59.758368",
        "meta_mean_motion": 1.00260442,
        "meta_eccentricity": 0.0001047,
        "meta_inclination": 0.0475,
        "meta_ra_of_asc_node": 199.7105,
        "meta_arg_of_pericenter": 11.4593,
        "meta_mean_anomaly": 126.8496,
        "meta_ephemeris_type": 0,
        "meta_classification_type": "U",
        "meta_norad_cat_id": 32729,
        "meta_element_set_no": 999,
        "meta_rev_at_epoch": 4384,
        "meta_bstar": 0,
        "meta_mean_motion_dot": -1.03e-06,
        "meta_mean_motion_ddot": 0,
        "tle_line1": "1 32729U 08013A   25358.95416387 -.00000103  00000+0  00000+0 0  9994",
        "tle_line2": "2 32729   0.0475 199.7105 0001047  11.4593 126.8496  1.00260442 43842"
      },
      "geometry": {
        "type": "Point",
        "coordinates": [
          -169.2405909694319,
          -0.015767257569633972
        ]
      }
    },
    {
      "type": "Feature",
      "properties": {
        "norad_id": 32951,
        "name": "GALAXY 18 (G-18)",
        "group": "intelsat",
        "lat": 0.013306462770490541,
        "lon": 167.02613461404766,
        "alt_km": 35792.86624422541,
        "timestamp": "2025-12-27T12:55:14.154840+00:00",
        "meta_object_name": "GALAXY 18 (G-18)",
        "meta_object_id": "2008-024A",
        "meta_epoch": "2025-12-27T05:33:11.258784",
        "meta_mean_motion": 1.00271313,
        "meta_eccentricity": 0.00033804,
        "meta_inclination": 0.0194,
        "meta_ra_of_asc_node": 7.6627,
        "meta_arg_of_pericenter": 277.2511,
        "meta_mean_anomaly": 131.3399,
        "meta_ephemeris_type": 0,
        "meta_classification_type": "U",
        "meta_norad_cat_id": 32951,
        "meta_element_set_no": 999,
        "meta_rev_at_epoch": 4412,
        "meta_bstar": 0,
        "meta_mean_motion_dot": 0,
        "meta_mean_motion_ddot": 0,
        "tle_line1": "1 32951U 08024A   25361.23138031  .00000000  00000+0  00000+0 0  9990",
        "tle_line2": "2 32951   0.0194   7.6627 0003380 277.2511 131.3399  1.00271313 44121"
      },
      "geometry": {
        "type": "Point",
        "coordinates": [
          167.02613461404766,
          0.013306462770490541
        ]
      }
    },
    {
      "type": "Feature",
      "properties": {
        "norad_id": 33153,
        "name": "INTELSAT 25 (IS-25)",
        "group": "intelsat",
        "lat": 0.13790144873703772,
        "lon": -101.43633442645448,
        "alt_km": 35765.7622157755,
        "timestamp": "2025-12-27T12:55:14.154852+00:00",
        "meta_object_name": "INTELSAT 25 (IS-25)",
        "meta_object_id": "2008-034A",
        "meta_epoch": "2025-12-27T02:23:21.689376",
        "meta_mean_motion": 1.00271146,
        "meta_eccentricity": 0.00050213,
        "meta_inclination": 2.2627,
        "meta_ra_of_asc_node": 82.491,
        "meta_arg_of_pericenter": 191.1841,
        "meta_mean_anomaly": 186.5053,
        "meta_ephemeris_type": 0,
        "meta_classification_type": "U",
        "meta_norad_cat_id": 33153,
        "meta_element_set_no": 999,
        "meta_rev_at_epoch": 6397,
        "meta_bstar": 0,
        "meta_mean_motion_dot": -2.02e-06,
        "meta_mean_motion_ddot": 0,
        "tle_line1": "1 33153U 08034A   25361.09955659 -.00000202  00000+0  00000+0 0  9998",
        "tle_line2": "2 33153   2.2627  82.4910 0005021 191.1841 186.5053  1.00271146 63978"
      },
      "geometry": {
        "type": "Point",
        "coordinates": [
          -101.43633442645448,
          0.13790144873703772
        ]
      }
    }
  ]
}